EVENT_NAME: AZERBAIJAN
EVENT_ID: EMSC-20150904_0000017
EVENT_DATE_YYYYMMDD: 20150904
EVENT_TIME_HHMMSS: 044938
EVENT_LATITUDE_DEGREE: 40.9900
EVENT_LONGITUDE_DEGREE: 47.5630
EVENT_DEPTH_KM: 14.0
HYPOCENTER_REFERENCE: MOS
MAGNITUDE_W: 5.5
MAGNITUDE_W_REFERENCE: GCMT
MAGNITUDE_L: 4.3
MAGNITUDE_L_REFERENCE: IDC
FOCAL_MECHANISM: SS
NETWORK: IU
STATION_CODE: GNI
STATION_NAME: Garni, Armenia
STATION_LATITUDE_DEGREE: 40.148000
STATION_LONGITUDE_DEGREE: 44.741000
STATION_ELEVATION_M: 1609
LOCATION: 20
SENSOR_DEPTH_M: 100.0
VS30_M/S: 
SITE_CLASSIFICATION_EC8: 
MORPHOLOGIC_CLASSIFICATION: 
EPICENTRAL_DISTANCE_KM: 256.6
EARTHQUAKE_BACKAZIMUTH_DEGREE: 67.7
DATE_TIME_FIRST_SAMPLE_YYYYMMDD_HHMMSS: 20150904_044953.388
DATE_TIME_FIRST_SAMPLE_PRECISION: milliseconds
SAMPLING_INTERVAL_S: 0.005000
NDATA: 40190
DURATION_S: 200.950
STREAM: HN1
UNITS: cm/s^2
INSTRUMENT: sensor = Unknown [Unknown] | digitizer = Unknown [Unknown]
INSTRUMENT_ANALOG/DIGITAL: D
INSTRUMENTAL_FREQUENCY_HZ: 
INSTRUMENTAL_DAMPING: 
FULL_SCALE_G: 
N_BIT_DIGITAL_CONVERTER: 
PGA_CM/S^2: -0.903387
TIME_PGA_S: 56.370000
BASELINE_CORRECTION: BASELINE REMOVED
FILTER_TYPE: BUTTERWORTH
FILTER_ORDER: 2
LOW_CUT_FREQUENCY_HZ: 0.030
HIGH_CUT_FREQUENCY_HZ: 30.000
LATE/NORMAL_TRIGGERED: NT
DATABASE_VERSION: DYNA 1.0
HEADER_FORMAT: DYNA 1.2
DATA_TYPE: ACCELERATION
PROCESSING: manual (Paolucci et al., 2011)
DATA_TIMESTAMP_YYYYMMDD_HHMMSS: 20150908_130511.757
DATA_LICENSE: U (unknown license)
DATA_CITATION: Luzi L, Puglia R, Russo E & ORFEUS WG5 (2016). Engineering Strong Motion Database. Istituto Nazionale di Geofisica e Vulcanologia, Observatories & Research Facilities for European Seismology. doi: 10.13127/ESM
DATA_CREATOR: ESM working group
ORIGINAL_DATA_MEDIATOR_CITATION: IRIS Data Services https://www.iris.edu/hq/iris_citations
ORIGINAL_DATA_MEDIATOR: IRIS DMC Web Services (http://service.iris.edu/fdsnws/dataselect/1)
ORIGINAL_DATA_CREATOR_CITATION: Global Seismograph Network (doi:10.7914/SN/IU), Albuquerque Seismological Laboratory USGS http://www.fdsn.org/networks/detail/IU/
ORIGINAL_DATA_CREATOR: network: IU (Global Seismograph Network (GSN - IRIS/USGS)); owner: Albuquerque Seismological Laboratory (ASL)/USGS
USER1: /home/dyna/processing-itaca/processing.py /var/www/processing//tmp/Lucia//IU.GNI.20.HN1.D.20150904.044938.X.ACC.ASC /var/www/processing//tmp/Lucia//IU.GNI.20.HN2.D.20150904.044938.X.ACC.ASC /var/www/processing//tmp/Lucia//IU.GNI.20.HNZ.D.20150904.044938.X.ACC.ASC --tmp /var/www/processing//tmp/Lucia/ --le 0.0300 --he 30.000 --ln 0.0300 --hn 30.000 --lz 0.0300 --hz 30.000 --fo 2 --ca 30 --cz 90.01 --ta 5 --tz 5 --mf 1 --rf 0.005 --tr NT
USER2: 
USER3: 
USER4: 
USER5: 
[...]
-0.008169
-0.001381
0.003521
0.006626
0.008199
0.008431
0.007455
0.005441
0.002554
-0.001116
-0.005514
-0.010445
-0.015380
-0.019519
-0.022240
-0.023496
-0.023725
-0.023484
-0.023167
-0.022955
-0.022992
-0.023547
-0.024910
-0.027172
-0.030096
-0.033152
-0.035741
-0.037437
-0.038086
-0.037756
-0.036590
-0.034687
-0.032115
-0.028950
-0.025237
-0.020978
-0.016261
-0.011450
-0.007290
-0.004763
-0.004637
-0.007045
-0.011419
-0.016724
-0.021859
-0.026036
-0.028985
-0.030949
-0.032461
-0.034020
-0.035812
-0.037563
-0.038629
-0.038243
-0.035860
-0.031394
-0.025229
-0.018014
-0.010365
-0.002600
0.005335
0.013752
0.022961
0.032981
0.043407
0.053450
0.062212
0.069037
0.073788
0.076865
0.078882
0.080273
0.081126
0.081299
0.080721
0.079577
0.078163
0.076669
0.075161
0.073676
0.072253
0.070819
0.068996
0.066136
0.061759
0.055914
0.049029
0.041546
0.033750
0.025849
0.018165
0.011231
0.005646
0.001880
0.000206
0.000659
0.002952
0.006491
0.010644
0.014971
0.019174
0.022941
0.025937
0.027922
0.028881
0.029022
0.028595
0.027722
0.026403
0.024592
0.022223
0.019230
0.015648
0.011635
0.007326
0.002718
-0.002213
-0.007313
-0.012203
-0.016403
-0.019578
-0.021654
-0.022694
-0.022741
-0.021878
-0.020347
-0.018544
-0.016861
-0.015484
-0.014283
-0.012924
-0.011046
-0.008378
-0.004834
-0.000621
0.003779
0.007867
0.011470
0.014909
0.018793
0.023407
0.028290
0.032506
0.035207
0.035986
0.034977
0.032772
0.030233
0.028220
0.027296
0.027548
0.028657
0.030298
0.032434
0.035169
0.038442
0.041927
0.045146
0.047674
0.049288
0.049969
0.049809
0.048901
0.047288
0.044993
0.042096
0.038805
0.035511
0.032778
0.031162
0.030840
0.031382
0.032009
0.032023
0.031069
0.029105
0.026141
0.022163
0.017419
0.012573
0.008288
0.004822
0.002221
0.000692
0.000572
0.002079
0.005134
0.009380
0.014334
0.019441
0.023911
0.026751
0.027303
0.025653
0.022354
0.017911
0.012642
0.006799
0.000724
-0.005122
-0.010270
-0.014424
-0.017588
-0.020144
-0.022804
-0.026375
-0.031294
-0.037332
-0.043762
-0.049738
-0.054587
-0.057955
-0.059868
-0.060635
-0.060590
-0.059810
-0.058042
-0.054817
-0.049723
-0.042686
-0.034076
-0.024650
-0.015312
-0.006834
0.000339
0.006103
0.010504
0.013609
0.015595
0.016856
0.017885
0.019042
0.020405
0.021822
0.023130
0.024310
0.025360
0.026146
0.026477
0.026274
0.025602
0.024562
0.023086
0.020849
0.017400
0.012370
0.005562
-0.003007
-0.013046
-0.023974
-0.035024
-0.045443
-0.054668
-0.062400
-0.068523
-0.073026
-0.076034
-0.077808
-0.078596
-0.078460
-0.077269
-0.074807
-0.070909
-0.065595
-0.059156
-0.052186
-0.045499
-0.039939
-0.036121
-0.034241
-0.034078
-0.035112
-0.036651
-0.037970
-0.038436
-0.037572
-0.035037
-0.030642
-0.024478
-0.017020
-0.009026
-0.001333
0.005318
0.010391
0.013600
0.014941
0.014732
0.013541
0.011948
0.010346
0.008987
0.008137
0.008153
0.009449
0.012361
0.017036
0.023413
0.031282
0.040320
0.050080
0.059916
0.069017
0.076665
0.082478
0.086413
0.088692
0.089792
0.090457
0.091575
0.093915
0.097829
0.103133
0.109340
0.115973
0.122659
0.129082
0.134904
0.139793
0.143584
0.146407
0.148629
0.150648
0.152647
0.154422
0.155394
0.154766
0.151797
0.146092
0.137820
0.127716
0.116797
0.105983
0.095845
0.086503
0.077701
0.069039
0.060293
0.051601
0.043308
0.035686
0.028779
0.022456
0.016604
0.011206
0.006120
0.000945
-0.004733
-0.011048
-0.017917
-0.025240
-0.032957
-0.040944
-0.048891
-0.056360
-0.063084
-0.069160
-0.074857
-0.080362
-0.085837
-0.091553
-0.097837
-0.104888
-0.112642
-0.120720
-0.128512
-0.135374
-0.140894
-0.145064
-0.148202
-0.150693
-0.152685
-0.154041
-0.154655
-0.154725
-0.154588
-0.154456
-0.154402
-0.154512
-0.154954
-0.155896
-0.157326
-0.158951
-0.160320
-0.160944
-0.160244
-0.157566
-0.152458
-0.144927
-0.135358
-0.124272
-0.112166
-0.099485
-0.086661
-0.074089
-0.061997
-0.050407
-0.039344
-0.028962
-0.019374
-0.010478
-0.002134
0.005567
0.012298
0.017689
0.021554
0.023932
0.024866
0.024265
0.022124
0.018739
0.014580
0.010095
0.005745
0.002067
-0.000493
-0.001809
-0.002146
-0.002015
-0.001898
-0.002106
-0.002913
-0.004626
-0.007277
-0.010353
-0.012953
-0.014197
-0.013533
-0.010840
-0.006315
-0.000323
0.006654
0.014126
0.021848
0.029915
0.038467
0.047335
0.056047
0.064077
0.071102
0.077084
0.082096
0.086189
0.089485
0.092308
0.095116
0.098305
0.102052
0.106231
0.110428
0.114011
0.116267
0.116569
0.114573
0.110350
0.104388
0.097464
0.090453
0.084102
0.078856
0.074782
0.071659
0.069145
0.066946
0.064896
0.062927
0.060986
0.058960
0.056642
0.053740
0.049993
0.045395
0.040347
0.035553
0.031747
0.029401
0.028569
0.028968
0.030184
0.031841
0.033659
0.035392
0.036736
0.037300
0.036694
0.034714
0.031454
0.027245
0.022513
0.017707
0.013196
0.009113
0.005274
0.001348
-0.002878
-0.007356
-0.011801
-0.015893
-0.019400
-0.022096
-0.023700
-0.024057
-0.023292
-0.021656
-0.019242
-0.015812
-0.010887
-0.004075
0.004568
0.014412
0.024404
0.033446
0.040837
0.046524
0.051023
0.054946
0.058601
0.062030
0.065276
0.068551
0.072171
0.076316
0.080889
0.085683
0.090587
0.095551
0.100469
0.105185
0.109581
0.113610
0.117302
0.120756
0.124112
0.127481
0.130792
0.133674
0.135561
0.136160
0.135808
0.135287
0.135370
0.136509
0.138803
0.142239
0.146852
0.152569
0.159040
0.165784
0.172459
0.178984
0.185456
0.191906
0.198111
0.203645
0.208075
0.211123
0.212623
0.212256
0.209455
0.203783
0.195396
0.185122
0.174105
0.163209
0.152701
0.142530
0.132713
0.123301
0.114210
0.105287
0.096499
0.088000
0.079996
0.072487
0.065187
0.057851
0.050548
0.043457
0.036556
0.029614
0.022432
0.015083
0.008005
0.001827
-0.002899
-0.005908
-0.007318
-0.007568
-0.007318
-0.007353
-0.008490
-0.011441
-0.016655
-0.024195
-0.033757
-0.044915
-0.057319
-0.070670
-0.084643
-0.098964
-0.113522
-0.128296
-0.143160
-0.157680
-0.171116
-0.182772
-0.192340
-0.199935
-0.205857
-0.210306
-0.213260
-0.214667
-0.214694
-0.213737
-0.212285
-0.210728
-0.209264
-0.207901
-0.206479
-0.204612
-0.201722
-0.197299
-0.191216
-0.183857
-0.175985
-0.168364
-0.161437
-0.155286
-0.149790
-0.144789
-0.140140
-0.135649
-0.131039
-0.126123
-0.120915
-0.115498
-0.109822
-0.103688
-0.096930
-0.089658
-0.082346
-0.075623
-0.070020
-0.065928
-0.063617
-0.063121
-0.064072
-0.065639
-0.066647
-0.065917
-0.062601
-0.056341
-0.047281
-0.036009
-0.023433
-0.010592
0.001653
0.012967
0.023669
0.034418
0.045784
0.058051
0.071183
0.084843
0.098454
0.111375
0.123143
0.133712
0.143417
0.152583
0.161169
0.168863
0.175335
0.180314
0.183531
0.184727
0.183733
0.180630
0.175832
0.169990
0.163818
0.157924
0.152710
0.148352
0.144818
0.141910
0.139303
0.136594
0.133495
0.130210
0.127599
0.126793
0.128611
0.133214
0.140064
0.148150
0.156262
0.163212
0.167976
0.169796
0.168201
0.162927
0.153879
0.141242
0.125597
0.107880
0.089151
0.070256
0.051546
0.032867
0.013780
-0.006021
-0.026352
-0.046424
-0.065080
-0.081300
-0.094634
-0.105210
-0.113480
-0.119935
-0.124977
-0.128983
-0.132315
-0.135089
-0.137081
-0.138064
-0.138211
-0.138092
-0.138406
-0.139709
-0.142294
-0.146314
-0.151947
-0.159450
-0.169191
-0.181734
-0.197741
-0.217532
-0.240693
-0.266115
-0.292349
-0.318014
-0.342029
-0.363569
-0.381999
-0.396977
-0.408536
-0.416945
-0.422468
-0.425265
-0.425438
-0.423221
-0.419117
-0.413862
-0.408288
-0.403176
-0.399110
-0.396296
-0.394405
-0.392555
-0.389546
-0.384397
-0.376751
-0.366798
-0.354975
-0.341753
-0.327623
-0.313191
-0.299129
-0.285840
-0.273178
-0.260573
-0.247360
-0.233006
-0.217152
-0.199503
-0.179823
-0.158155
-0.134981
-0.111015
-0.086870
-0.062898
-0.039221
-0.015886
0.007009
0.029305
0.050837
0.071477
0.091163
0.109899
0.127664
0.144202
0.159010
0.171678
0.182133
0.190398
0.196325
0.199786
0.201035
0.200778
0.199857
0.198723
0.197278
0.195399
0.193326
0.191187
0.188460
0.184234
0.177881
0.169468
0.159720
0.149622
0.140083
0.131953
0.126081
0.123077
0.123126
0.126195
0.132240
0.141044
0.151995
0.164194
0.176717
0.188777
0.199709
0.208884
0.215698
0.219734
0.220827
0.218816
0.213322
0.203868
0.190118
0.171941
0.149375
0.122643
0.092226
0.058945
0.023958
-0.011366
-0.045618
-0.077467
-0.105789
-0.129845
-0.149335
-0.164233
-0.174634
-0.180870
-0.183728
-0.184541
-0.184985
-0.186589
-0.190335
-0.196685
-0.205805
-0.217682
-0.232145
-0.248855
-0.267369
-0.287287
-0.308327
-0.330198
-0.352480
-0.374675
-0.396359
-0.417286
-0.437374
-0.456601
-0.474845
-0.491787
-0.506928
-0.519750
-0.529880
-0.537100
-0.541229
-0.541966
-0.538878
-0.531626
-0.520171
-0.504747
-0.485808
-0.464159
-0.441066
-0.418099
-0.396789
-0.378333
-0.363465
-0.352539
-0.345542
-0.341882
-0.340340
-0.339519
-0.338368
-0.336318
-0.333176
-0.329048
-0.324341
-0.319719
-0.315939
-0.313526
-0.312566
-0.312849
-0.314040
-0.315608
-0.316710
-0.316276
-0.313247
-0.306805
-0.296537
-0.282505
-0.265255
-0.245745
-0.225127
-0.204369
-0.183967
-0.163989
-0.144301
-0.124762
-0.105320
-0.085973
-0.066737
-0.047691
-0.029060
-0.011233
0.005298
0.020087
0.032831
0.043338
0.051439
0.056947
0.059696
0.059670
0.057181
0.053032
0.048499
0.045014
0.043779
0.045548
0.050603
0.058871
0.069994
0.083283
0.097798
0.112714
0.127652
0.142667
0.158040
0.174141
0.191388
0.210214
0.230936
0.253508
0.277420
0.301973
0.326559
0.350634
0.373651
0.395275
0.415665
0.435514
0.455767
0.477096
0.499515
0.522448
0.544962
0.565881
0.583810
0.597258
0.604801
0.605280
0.598042
0.583221
0.561894
0.535901
0.507359
0.478037
0.449036
0.421054
0.394750
0.370658
0.348834
0.328650
0.309113
0.289773
0.271221
0.254436
0.239891
0.227502
0.217119
0.208947
0.203426
0.200561
0.199525
0.199182
0.198592
0.196674
0.191832
0.182457
0.167743
0.147964
0.124207
0.097820
0.070057
0.042182
0.015577
-0.008554
-0.029428
-0.046453
-0.059015
-0.066734
-0.069778
-0.068738
-0.064310
-0.057157
-0.047884
-0.036951
-0.024600
-0.010903
0.003983
0.019461
0.034391
0.047517
0.057944
0.065195
0.069072
0.069602
0.066967
0.061305
0.052559
0.040622
0.025612
0.008034
-0.011267
-0.031381
-0.051546
-0.071095
-0.089334
-0.105560
-0.119111
-0.129322
-0.135562
-0.137495
-0.135300
-0.129594
-0.121164
-0.110719
-0.098752
-0.085517
-0.071049
-0.055173
-0.037593
-0.018145
0.002984
0.025247
0.047827
0.069733
0.089921
0.107512
0.122016
0.133418
0.142145
0.148899
0.154435
0.159337
0.163909
0.168262
0.172579
0.177413
0.183780
0.192859
0.205563
0.222299
0.242989
0.267270
0.294665
0.324526
0.355899
0.387501
0.417849
0.445467
0.469045
0.487422
0.499607
0.504977
0.503531
0.495964
0.483494
0.467446
0.448863
0.428416
0.406542
0.383717
0.360665
0.338388
0.318052
0.300796
0.287608
0.279315
0.276568
0.279678
0.288469
0.302279
0.320119
0.340886
0.363559
0.387280
0.411393
0.435440
0.459144
0.482363
0.505083
0.527485
0.549947
0.572840
0.596245
0.619732
0.642267
0.662291
0.677960
0.687530
0.689687
0.683672
0.669268
0.646736
0.616757
0.580365
0.538846
0.493605
0.446067
0.397696
0.350006
0.304452
0.262223
0.224026
0.189963
0.159624
0.132328
0.107435
0.084570
0.063638
0.044687
0.027701
0.012470
-0.001377
-0.014201
-0.026119
-0.036870
-0.045903
-0.052607
-0.056577
-0.057795
-0.056681
-0.054126
-0.051587
-0.051011
-0.054424
-0.063436
-0.079009
-0.101489
-0.130811
-0.166539
-0.207583
-0.252000
-0.297298
-0.341012
-0.381141
-0.416245
-0.445194
-0.467049
-0.481410
-0.488657
-0.489542
-0.484546
-0.473612
-0.456364
-0.432675
-0.403010
-0.368210
-0.329173
-0.286951
-0.242904
-0.198518
-0.155052
-0.113341
-0.073856
-0.036984
-0.003226
0.026908
0.053094
0.075197
0.093167
0.106934
0.116363
0.121284
0.121610
0.117544
0.109736
0.099262
0.087477
0.075811
0.065518
0.057414
0.051675
0.047837
0.044976
0.042022
0.038110
0.032848
0.026423
0.019491
0.012909
0.007422
0.003494
0.001399
0.001342
0.003380
0.007286
0.012512
0.018237
0.023396
0.026698
0.026660
0.021823
0.011207
-0.005294
-0.026881
-0.052082
-0.079111
-0.106235
-0.132121
-0.156084
-0.178147
-0.198854
-0.218842
-0.238468
-0.257741
-0.276416
-0.294052
-0.310043
-0.323694
-0.334407
-0.341985
-0.346830
-0.349828
-0.351978
-0.353918
-0.355635
-0.356593
-0.356112
-0.353755
-0.349483
-0.343489
-0.336080
-0.327880
-0.320003
-0.313799
-0.310355
-0.310125
-0.312913
-0.318297
-0.325999
-0.335844
-0.347623
-0.361213
-0.376748
-0.394513
-0.414726
-0.437434
-0.462617
-0.490444
-0.521315
-0.555486
-0.592724
-0.632432
-0.673903
-0.716277
-0.758336
-0.798392
-0.834419
-0.864410
-0.886693
-0.899989
-0.903387
-0.896419
-0.879105
-0.851843
-0.815297
-0.770415
-0.718496
-0.661105
-0.599890
-0.536385
-0.471929
-0.407773
-0.345208
-0.285552
-0.229927
-0.178879
-0.132124
-0.088638
-0.046983
-0.005684
0.036416
0.079887
0.124549
0.169487
0.213265
0.254326
0.291331
0.323232
0.349295
0.369234
0.383322
0.392298
0.397199
0.399260
0.399886
0.400591
0.402827
0.407686
0.415653
0.426571
0.439682
0.453656
0.466790
0.477535
0.485022
0.489240
0.490898
0.491135
0.491167
0.491961
0.494007
0.497272
0.501332
0.505650
0.509819
0.513627
0.517053
0.520303
0.523795
0.527983
0.533203
0.539642
0.547359
0.556228
0.565919
0.576061
0.586480
0.597318
0.608853
0.621063
0.633477
0.645740
0.658143
0.671346
0.685596
0.700055
0.712698
0.721005
0.722726
0.716116
0.699995
0.674007
0.638780
0.595568
0.545656
0.489930
0.428913
0.363271
0.294232
0.223407
0.152363
0.082409
0.014586
-0.050266
-0.111429
-0.168233
-0.220021
-0.266198
-0.306333
-0.340253
-0.368100
-0.390305
-0.407533
-0.420623
-0.430485
-0.437926
-0.443543
-0.447800
-0.451115
-0.453836
-0.456198
-0.458407
-0.460844
-0.464253
-0.469681
-0.478076
-0.489856
-0.504825
-0.522316
-0.541350
-0.560712
-0.578962
-0.594621
-0.606623
-0.614652
-0.618940
-0.619826
-0.617459
-0.611830
-0.603080
-0.591732
-0.578547
-0.564286
-0.549688
-0.535547
-0.522658
-0.511593
-0.502407
-0.494535
-0.487074
-0.479214
-0.470495
-0.460783
-0.450021
-0.438046
-0.424743
-0.410299
-0.395291
-0.380582
-0.367069
-0.355406
-0.345809
-0.337943
-0.330956
-0.323709
-0.315207
-0.304948
-0.292948
-0.279565
-0.265297
-0.250611
-0.235811
-0.220994
-0.206158
-0.191374
-0.176923
-0.163337
-0.151302
-0.141486
-0.134385
-0.130191
-0.128693
-0.129234
-0.130721
-0.131759
-0.130900
-0.126908
-0.118897
-0.106330
-0.088930
-0.066701
-0.040149
-0.010474
0.020566
0.051045
0.079335
0.104402
0.125769
0.143379
0.157589
0.169168
0.179164
0.188674
0.198657
0.209758
0.222173
0.235538
0.248932
0.260997
0.270185
0.275064
0.274594
0.268335
0.256557
0.240225
0.220855
0.200279
0.180401
0.162909
0.148989
0.139157
0.133317
0.130920
0.131110
0.132856
0.135092
0.136877
0.137511
0.136540
0.133618
0.128378
0.120430
0.109450
0.095274
0.078020
0.058244
0.036930
0.015191
-0.006143
-0.026772
-0.046904
-0.066942
-0.087134
-0.107405
-0.127351
-0.146316
-0.163542
-0.178391
-0.190519
-0.199905
-0.206811
-0.211735
-0.215296
-0.218024
-0.220213
-0.221974
-0.223350
-0.224310
-0.224763
-0.224720
-0.224468
-0.224582
-0.225732
-0.228369
-0.232564
-0.238186
-0.245083
-0.252958
-0.261188
-0.268885
-0.275144
-0.279321
-0.281178
-0.280831
-0.278611
-0.274979
-0.270457
-0.265574
-0.260911
-0.257270
-0.255727
-0.257314
-0.262591
-0.271392
-0.282823
-0.295440
-0.307453
-0.316831
-0.321463
-0.319509
-0.309783
-0.291953
-0.266605
-0.235215
-0.199936
-0.163172
-0.127201
-0.094097
-0.065745
-0.043709
-0.028945
-0.021524
-0.020654
-0.025157
-0.033899
-0.045733
-0.059334
-0.073352
-0.086777
-0.099199
-0.110730
-0.121581
-0.131702
-0.140880
-0.148907
-0.155469
-0.159980
-0.161670
-0.159813
-0.153848
-0.143342
-0.127854
-0.106942
-0.080445
-0.048761
-0.012834
0.026040
0.066404
0.106852
0.146319
0.184284
0.220708
0.255743
0.289332
0.320997
0.350017
0.375790
0.398098
0.417181
0.433599
0.447975
0.460727
0.471927
0.481391
0.488834
0.493971
0.496593
0.496681
0.494521
0.490728
0.486155
0.481728
0.478313
0.476714
0.477651
0.481591
0.488525
0.497915
0.508913
0.520864
0.533683
0.547705
0.563192
0.579825
0.596613
0.612398
0.626384
0.638120
0.647211
0.653208
0.655866
0.655656
0.653910
0.652120
0.651220
0.651588
0.653319
0.656167
0.659316
0.661367
0.660671
0.655936
0.646655
0.633006
0.615603
0.595436
0.573723
0.551412
0.528789
0.505650
0.481687
0.456659
0.430450
0.403184
0.375338
0.347625
0.320649
0.294425
0.268195
0.240837
0.211451
0.179630
0.145516
0.109832
0.073770
0.038624
0.005365
-0.025591
-0.054454
-0.081996
-0.109434
-0.138239
-0.169803
-0.204979
-0.243816
-0.285779
-0.330143
-0.376171
-0.423064
-0.469797
-0.515071
-0.557544
-0.596033
-0.629501
-0.657020
-0.677993
-0.692394
-0.700760
-0.703952
-0.702841
-0.698131
-0.690457
-0.680461
-0.668622
-0.655141
-0.640117
-0.623805
-0.606592
-0.588807
-0.570536
-0.551602
-0.531779
-0.510985
-0.489259
-0.466652
-0.443198
-0.418897
-0.393627
-0.367094
-0.338937
-0.308974
-0.277448
-0.245087
-0.212840
-0.181555
-0.151848
-0.124164
-0.098869
-0.076245
-0.056283
-0.038487
-0.021940
-0.005571
0.011495
0.029682
0.048964
0.069012
0.089391
0.109676
0.129463
0.148370
0.166142
0.182771
0.198547
0.213989
0.229677
0.246163
0.264041
0.283996
0.306615
0.332095
0.360066
0.389607
0.419503
0.448549
0.475813
0.500840
0.523811
0.545511
0.566982
0.589065
0.612078
0.635761
0.659504
0.682582
0.704174
0.723377
0.739406
0.751883
0.760999
0.767463
0.772251
0.776433
0.781201
0.787802
0.797117
0.809248
0.823546
0.838929
0.854173
0.868013
0.879046
0.885789
0.887138
0.882748
0.872875
0.858054
0.839025
0.816806
0.792647
0.767784
0.743052
0.718605
0.693985
0.668370
0.640774
0.610231
0.575969
0.537514
0.494663
0.447450
0.396230
0.341789
0.285314
0.228178
0.171569
0.116296
0.062994
0.012397
-0.034694
-0.077678
-0.116406
-0.151199
-0.182535
-0.210761
-0.236150
-0.259081
-0.280013
-0.299354
-0.317349
-0.334112
-0.349768
-0.364535
-0.378624
-0.392118
-0.405015
-0.417298
-0.428877
